OBJECT_NAME,OBJECT_ID,EPOCH,MEAN_MOTION,ECCENTRICITY,INCLINATION,RA_OF_ASC_NODE,ARG_OF_PERICENTER,MEAN_ANOMALY,EPHEMERIS_TYPE,CLASSIFICATION_TYPE,NORAD_CAT_ID,ELEMENT_SET_NO,REV_AT_EPOCH,BSTAR,MEAN_MOTION_DOT,MEAN_MOTION_DDOT
ONEWEB-0644,2023-029N,2026-06-10T08:17:58.263072,13.19724259,.0001592,87.9164,306.3417,107.0428,253.0879,0,U,55808,999,15800,.20491E-3,.95E-6,0
ONEWEB-0645,2023-029P,2026-06-10T03:22:16.970880,13.19723694,.00013924,87.9163,306.3796,93.0521,267.0771,0,U,55809,999,15797,.4004086E-4,.29E-6,0
ONEWEB-0646,2023-029Q,2026-06-10T07:25:40.578816,13.19724565,.0001643,87.9163,306.3461,105.2531,254.8783,0,U,55810,999,15798,-.10478E-3,-.29E-6,0
ONEWEB-0648,2023-029R,2026-06-10T08:06:33.289056,13.14505283,.000094,87.8958,291.0687,105.9568,254.1666,0,U,55811,999,15849,.54399E-3,.214E-5,0
ONEWEB-0649,2023-029S,2026-06-10T08:02:03.129216,13.19725103,.0001569,87.9163,306.3386,97.6221,262.5090,0,U,55812,999,15802,.14451E-3,.71E-6,0
ONEWEB-0650,2023-029T,2026-06-10T07:55:12.696384,13.19724796,.0001369,87.9163,306.3422,110.5237,249.6042,0,U,55813,999,15799,.94524E-4,.51E-6,0
ONEWEB-0652,2023-029U,2026-06-10T07:39:09.651744,13.14504770,.0002035,87.8957,291.0801,99.6708,260.4651,0,U,55814,999,15846,-.35547E-3,-.119E-5,0
ONEWEB-0653,2023-029V,2026-06-10T07:16:19.960320,13.14503078,.0001886,87.8960,291.0808,97.2886,262.8458,0,U,55815,999,15849,-.24778E-3,-.79E-6,0
ONEWEB-0654,2023-029W,2026-06-10T07:09:29.268288,13.14503278,.0002172,87.8959,291.0779,94.0011,266.1367,0,U,55816,999,15851,-.10275E-3,-.25E-6,0
ONEWEB-0656,2023-029X,2026-06-10T07:27:11.113920,13.20772579,.0002329,87.9194,275.7999,95.0287,265.1112,0,U,55817,999,16024,.41602E-4,.3E-6,0
ONEWEB-0657,2023-029Y,2026-06-10T07:48:24.991200,13.19724450,.0002449,87.9163,306.3419,107.0510,253.0891,0,U,55818,999,15800,.10713E-4,.17E-6,0
ONEWEB-0658,2023-029Z,2026-06-10T07:41:35.340288,13.19724509,.0001542,87.9172,306.3178,108.0940,252.0361,0,U,55819,999,15801,.13461E-4,.18E-6,0
ONEWEB-0660,2023-029AA,2026-06-10T06:37:31.298016,13.14503120,.000159,87.8967,291.0751,93.9625,266.1687,0,U,55820,999,15849,.65433E-3,.255E-5,0
ONEWEB-0661,2023-029AB,2026-06-10T07:27:45.808704,13.14502450,.0001705,87.8948,291.1142,91.9382,268.1943,0,U,55821,999,15848,-.58942E-3,-.206E-5,0
ONEWEB-0662,2023-029AC,2026-06-10T08:18:00.011808,13.14502344,.0001578,87.8947,291.1135,94.3328,265.7982,0,U,55822,999,15853,.74681E-3,.29E-5,0
ONEWEB-0663,2023-029AD,2026-06-10T08:16:25.948128,13.20868751,.0001502,87.9191,275.8650,101.9878,258.1423,0,U,55823,999,16024,.28459E-3,.129E-5,0
ONEWEB-0664,2023-029AE,2026-06-10T07:07:46.513632,13.20770090,.000191,87.9177,275.8564,85.8660,274.2692,0,U,55824,999,16023,.45488E-4,.31E-6,0
ONEWEB-0665,2023-029AF,2026-06-10T07:23:11.898240,13.14502534,.0001549,87.8949,291.0954,97.5720,262.5586,0,U,55825,999,15850,-.61593E-3,-.216E-5,0
ONEWEB-0666,2023-029AG,2026-06-10T06:58:05.071872,13.20770831,.0002576,87.9179,275.8475,109.7268,250.4143,0,U,55826,999,16024,.97183E-4,.53E-6,0
ONEWEB-0667,2023-029AH,2026-06-10T06:50:49.346304,13.20771412,.0001808,87.9195,275.8056,96.6704,263.4635,0,U,55827,999,16023,.10052E-3,.54E-6,0
ONEWEB-0669,2023-029AJ,2026-06-10T06:43:32.639232,13.20771707,.0002367,87.9189,275.8182,90.1009,270.0396,0,U,55828,999,16023,.27228E-3,.124E-5,0
ONEWEB-0670,2023-029AK,2026-06-09T21:43:10.993440,13.14502347,.00017621,87.8950,291.1933,86.7484,273.3848,0,U,55829,999,15847,-.77190881E-4,-.16E-6,0
ONEWEB-0671,2023-029AL,2026-06-10T07:34:44.906592,13.19723772,.0001691,87.9164,306.3451,94.2644,265.8682,0,U,55830,999,15799,.20406E-4,.21E-6,0
ONEWEB-0672,2023-029AM,2026-06-10T06:36:15.831936,13.20771960,.0002224,87.9190,275.8123,101.1811,258.9573,0,U,55831,999,16023,.22385E-3,.104E-5,0
ONEWEB-0673,2023-029AN,2026-06-10T03:23:25.941408,13.19726089,.00017363,87.9170,306.3710,93.7020,266.4311,0,U,55832,999,15797,.26192029E-4,.23E-6,0
ONEWEB-0674,2023-029AP,2026-06-10T07:55:09.908256,13.14503909,.00018,87.8947,291.0854,86.6539,273.4797,0,U,55833,999,15851,.18834E-3,.83E-6,0
ONEWEB-0675,2023-029AQ,2026-06-10T03:45:02.367360,13.19723908,.000202,87.9163,306.3784,105.3446,254.7910,0,U,55834,999,15799,.11575E-4,.18E-6,0
ONEWEB-0720,2023-029AR,2026-06-10T03:33:39.526560,13.19724058,.00015452,87.9162,306.3801,100.3077,259.8230,0,U,55835,999,15791,.60713026E-4,.37E-6,0
ONEWEB-0537,2023-043A,2026-06-10T10:20:27.174912,13.16594465,.000226,87.9101,230.1130,101.3047,258.8338,0,U,56046,999,15807,-.12339E-4,.8E-7,0
ONEWEB-0538,2023-043B,2026-06-10T10:11:20.077152,13.16594827,.000205,87.9103,230.1167,106.4209,253.7147,0,U,56047,999,15808,.19393E-3,.87E-6,0
