ONEWEB-0644             
1 55808U 23029N   26161.34581323  .00000095  00000+0  20491-3 0  9999
2 55808  87.9164 306.3417 0001592 107.0428 253.0879 13.19724259158007
ONEWEB-0645             
1 55809U 23029P   26161.14047420  .00000029  00000+0  40041-4 0  9994
2 55809  87.9163 306.3796 0001392  93.0521 267.0771 13.19723694157976
ONEWEB-0646             
1 55810U 23029Q   26161.30949744 -.00000029  00000+0 -10478-3 0  9996
2 55810  87.9163 306.3461 0001643 105.2531 254.8783 13.19724565157989
ONEWEB-0648             
1 55811U 23029R   26161.33788529  .00000214  00000+0  54399-3 0  9996
2 55811  87.8958 291.0687 0000940 105.9568 254.1666 13.14505283158496
ONEWEB-0649             
1 55812U 23029S   26161.33475844  .00000071  00000+0  14451-3 0  9996
2 55812  87.9163 306.3386 0001569  97.6221 262.5090 13.19725103158026
ONEWEB-0650             
1 55813U 23029T   26161.33000806  .00000051  00000+0  94524-4 0  9997
2 55813  87.9163 306.3422 0001369 110.5237 249.6042 13.19724796157993
ONEWEB-0652             
1 55814U 23029U   26161.31886171 -.00000119  00000+0 -35547-3 0  9999
2 55814  87.8957 291.0801 0002035  99.6708 260.4651 13.14504770158469
ONEWEB-0653             
1 55815U 23029V   26161.30300880 -.00000079  00000+0 -24778-3 0  9996
2 55815  87.8960 291.0808 0001886  97.2886 262.8458 13.14503078158499
ONEWEB-0654             
1 55816U 23029W   26161.29825542 -.00000025  00000+0 -10275-3 0  9990
2 55816  87.8959 291.0779 0002172  94.0011 266.1367 13.14503278158510
ONEWEB-0656             
1 55817U 23029X   26161.31054530  .00000030  00000+0  41602-4 0  9998
2 55817  87.9194 275.7999 0002329  95.0287 265.1112 13.20772579160245
ONEWEB-0657             
1 55818U 23029Y   26161.32528925  .00000017  00000+0  10713-4 0  9998
2 55818  87.9163 306.3419 0002449 107.0510 253.0891 13.19724450158000
ONEWEB-0658             
1 55819U 23029Z   26161.32054792  .00000018  00000+0  13461-4 0  9999
2 55819  87.9172 306.3178 0001542 108.0940 252.0361 13.19724509158011
ONEWEB-0660             
1 55820U 23029AA  26161.27605669  .00000255  00000+0  65433-3 0  9998
2 55820  87.8967 291.0751 0001590  93.9625 266.1687 13.14503120158494
ONEWEB-0661             
1 55821U 23029AB  26161.31094686 -.00000206  00000+0 -58942-3 0  9990
2 55821  87.8948 291.1142 0001705  91.9382 268.1943 13.14502450158486
ONEWEB-0662             
1 55822U 23029AC  26161.34583347  .00000290  00000+0  74681-3 0  9990
2 55822  87.8947 291.1135 0001578  94.3328 265.7982 13.14502344158537
ONEWEB-0663             
1 55823U 23029AD  26161.34474477  .00000129  00000+0  28459-3 0  9997
2 55823  87.9191 275.8650 0001502 101.9878 258.1423 13.20868751160244
ONEWEB-0664             
1 55824U 23029AE  26161.29706613  .00000031  00000+0  45488-4 0  9996
2 55824  87.9177 275.8564 0001910  85.8660 274.2692 13.20770090160239
ONEWEB-0665             
1 55825U 23029AF  26161.30777660 -.00000216  00000+0 -61593-3 0  9990
2 55825  87.8949 291.0954 0001549  97.5720 262.5586 13.14502534158502
ONEWEB-0666             
1 55826U 23029AG  26161.29033648  .00000053  00000+0  97183-4 0  9992
2 55826  87.9179 275.8475 0002576 109.7268 250.4143 13.20770831160244
ONEWEB-0667             
1 55827U 23029AH  26161.28529336  .00000054  00000+0  10052-3 0  9996
2 55827  87.9195 275.8056 0001808  96.6704 263.4635 13.20771412160239
ONEWEB-0669             
1 55828U 23029AJ  26161.28023888  .00000124  00000+0  27228-3 0  9999
2 55828  87.9189 275.8182 0002367  90.1009 270.0396 13.20771707160236
ONEWEB-0670             
1 55829U 23029AK  26160.90498835 -.00000016  00000+0 -77191-4 0  9993
2 55829  87.8950 291.1933 0001762  86.7484 273.3848 13.14502347158479
ONEWEB-0671             
1 55830U 23029AL  26161.31579753  .00000021  00000+0  20406-4 0  9991
2 55830  87.9164 306.3451 0001691  94.2644 265.8682 13.19723772157996
ONEWEB-0672             
1 55831U 23029AM  26161.27518324  .00000104  00000+0  22385-3 0  9993
2 55831  87.9190 275.8123 0002224 101.1811 258.9573 13.20771960160236
ONEWEB-0673             
1 55832U 23029AN  26161.14127247  .00000023  00000+0  26192-4 0  9991
2 55832  87.9170 306.3710 0001736  93.7020 266.4311 13.19726089157973
ONEWEB-0674             
1 55833U 23029AP  26161.32997579  .00000083  00000+0  18834-3 0  9994
2 55833  87.8947 291.0854 0001800  86.6539 273.4797 13.14503909158518
ONEWEB-0675             
1 55834U 23029AQ  26161.15627740  .00000018  00000+0  11575-4 0  9990
2 55834  87.9163 306.3784 0002020 105.3446 254.7910 13.19723908157991
ONEWEB-0720             
1 55835U 23029AR  26161.14837415  .00000037  00000+0  60713-4 0  9991
2 55835  87.9162 306.3801 0001545 100.3077 259.8230 13.19724058157917
ONEWEB-0537             
1 56046U 23043A   26161.43087008  .00000008  00000+0 -12339-4 0  9999
2 56046  87.9101 230.1130 0002260 101.3047 258.8338 13.16594465158077
ONEWEB-0538             
1 56047U 23043B   26161.42453793  .00000087  00000+0  19393-3 0  9999
2 56047  87.9103 230.1167 0002050 106.4209 253.7147 13.16594827158088
